{
  "type": "FeatureCollection",
  "features": [
    {
      "type": "Feature",
      "properties": {
        "norad_id": 31307,
        "name": "GALAXY 17 (G-17)",
        "group": "intelsat",
        "lat": -2.4781214473116013,
        "lon": -13.43829210178317,
        "alt_km": 35791.808548568195,
        "timestamp": "2025-12-08T23:34:03.637290+00:00",
        "meta_object_name": "GALAXY 17 (G-17)",
        "meta_object_id": "2007-016B",
        "meta_epoch": "2025-12-08T12:30:32.806656",
        "meta_mean_motion": 1.00272606,
        "meta_eccentricity": 0.00061229,
        "meta_inclination": 2.4892,
        "meta_ra_of_asc_node": 82.3294,
        "meta_arg_of_pericenter": 161.5808,
        "meta_mean_anomaly": 296.2543,
        "meta_ephemeris_type": 0,
        "meta_classification_type": "U",
        "meta_norad_cat_id": 31307,
        "meta_element_set_no": 999,
        "meta_rev_at_epoch": 6789,
        "meta_bstar": 0,
        "meta_mean_motion_dot": -2.05e-06,
        "meta_mean_motion_ddot": 0,
        "tle_line1": "1 31307U 07016B   25342.52121304 -.00000205  00000+0  00000+0 0  9998",
        "tle_line2": "2 31307   2.4892  82.3294 0006122 161.5808 296.2543  1.00272606 67894"
      },
      "geometry": {
        "type": "Point",
        "coordinates": [
          -13.43829210178317,
          -2.4781214473116013
        ]
      }
    },
    {
      "type": "Feature",
      "properties": {
        "norad_id": 31862,
        "name": "DIRECTV 10",
        "group": "intelsat",
        "lat": 0.0013105931965485234,
        "lon": -31.281689919723352,
        "alt_km": 35785.76470362766,
        "timestamp": "2025-12-08T23:34:03.637302+00:00",
        "meta_object_name": "DIRECTV 10",
        "meta_object_id": "2007-032A",
        "meta_epoch": "2025-12-08T13:06:55.052928",
        "meta_mean_motion": 1.00273681,
        "meta_eccentricity": 4.7e-05,
        "meta_inclination": 0.0146,
        "meta_ra_of_asc_node": 154.5451,
        "meta_arg_of_pericenter": 77.9506,
        "meta_mean_anomaly": 299.0032,
        "meta_ephemeris_type": 0,
        "meta_classification_type": "U",
        "meta_norad_cat_id": 31862,
        "meta_element_set_no": 999,
        "meta_rev_at_epoch": 4368,
        "meta_bstar": 0,
        "meta_mean_motion_dot": -1.01e-06,
        "meta_mean_motion_ddot": 0,
        "tle_line1": "1 31862U 07032A   25342.54647052 -.00000101  00000+0  00000+0 0  9992",
        "tle_line2": "2 31862   0.0146 154.5451 0000470  77.9506 299.0032  1.00273681 43687"
      },
      "geometry": {
        "type": "Point",
        "coordinates": [
          -31.281689919723352,
          0.0013105931965485234
        ]
      }
    },
    {
      "type": "Feature",
      "properties": {
        "norad_id": 32253,
        "name": "INTELSAT 11 (IS-11)",
        "group": "intelsat",
        "lat": -2.458112983865494,
        "lon": -46.21607677466809,
        "alt_km": 36118.73635199113,
        "timestamp": "2025-12-08T23:34:03.637313+00:00",
        "meta_object_name": "INTELSAT 11 (IS-11)",
        "meta_object_id": "2007-044B",
        "meta_epoch": "2025-12-08T13:54:43.049952",
        "meta_mean_motion": 0.99047596,
        "meta_eccentricity": 0.00091605,
        "meta_inclination": 3.0693,
        "meta_ra_of_asc_node": 81.0198,
        "meta_arg_of_pericenter": 164.1911,
        "meta_mean_anomaly": 285.0546,
        "meta_ephemeris_type": 0,
        "meta_classification_type": "U",
        "meta_norad_cat_id": 32253,
        "meta_element_set_no": 999,
        "meta_rev_at_epoch": 6656,
        "meta_bstar": 0,
        "meta_mean_motion_dot": 6.7e-07,
        "meta_mean_motion_ddot": 0,
        "tle_line1": "1 32253U 07044B   25342.57966493  .00000067  00000+0  00000+0 0  9996",
        "tle_line2": "2 32253   3.0693  81.0198 0009160 164.1911 285.0546  0.99047596 66566"
      },
      "geometry": {
        "type": "Point",
        "coordinates": [
          -46.21607677466809,
          -2.458112983865494
        ]
      }
    },
    {
      "type": "Feature",
      "properties": {
        "norad_id": 32388,
        "name": "HORIZONS-2",
        "group": "intelsat",
        "lat": -2.0999419816023273,
        "lon": -2.225282465122907,
        "alt_km": 35786.228795796385,
        "timestamp": "2025-12-08T23:34:03.637325+00:00",
        "meta_object_name": "HORIZONS-2",
        "meta_object_id": "2007-063B",
        "meta_epoch": "2025-12-08T12:37:06.407904",
        "meta_mean_motion": 1.00270706,
        "meta_eccentricity": 0.00050513,
        "meta_inclination": 2.1104,
        "meta_ra_of_asc_node": 83.0022,
        "meta_arg_of_pericenter": 186.0895,
        "meta_mean_anomaly": 283.9362,
        "meta_ephemeris_type": 0,
        "meta_classification_type": "U",
        "meta_norad_cat_id": 32388,
        "meta_element_set_no": 999,
        "meta_rev_at_epoch": 6590,
        "meta_bstar": 0,
        "meta_mean_motion_dot": -2.52e-06,
        "meta_mean_motion_ddot": 0,
        "tle_line1": "1 32388U 07063B   25342.52576861 -.00000252  00000+0  00000+0 0  9994",
        "tle_line2": "2 32388   2.1104  83.0022 0005051 186.0895 283.9362  1.00270706 65903"
      },
      "geometry": {
        "type": "Point",
        "coordinates": [
          -2.225282465122907,
          -2.0999419816023273
        ]
      }
    },
    {
      "type": "Feature",
      "properties": {
        "norad_id": 32729,
        "name": "DIRECTV 11",
        "group": "intelsat",
        "lat": 0.0035048070324687013,
        "lon": -27.681799013212164,
        "alt_km": 35785.14410707372,
        "timestamp": "2025-12-08T23:34:03.637337+00:00",
        "meta_object_name": "DIRECTV 11",
        "meta_object_id": "2008-013A",
        "meta_epoch": "2025-12-08T12:22:13.979712",
        "meta_mean_motion": 1.00277541,
        "meta_eccentricity": 6.349e-05,
        "meta_inclination": 0.0325,
        "meta_ra_of_asc_node": 186.1043,
        "meta_arg_of_pericenter": 41.6309,
        "meta_mean_anomaly": 296.1535,
        "meta_ephemeris_type": 0,
        "meta_classification_type": "U",
        "meta_norad_cat_id": 32729,
        "meta_element_set_no": 999,
        "meta_rev_at_epoch": 4368,
        "meta_bstar": 0,
        "meta_mean_motion_dot": -1.24e-06,
        "meta_mean_motion_ddot": 0,
        "tle_line1": "1 32729U 08013A   25342.51543958 -.00000124  00000+0  00000+0 0  9997",
        "tle_line2": "2 32729   0.0325 186.1043 0000634  41.6309 296.1535  1.00277541 43683"
      },
      "geometry": {
        "type": "Point",
        "coordinates": [
          -27.681799013212164,
          0.0035048070324687013
        ]
      }
    },
    {
      "type": "Feature",
      "properties": {
        "norad_id": 32951,
        "name": "GALAXY 18 (G-18)",
        "group": "intelsat",
        "lat": -0.0020474276356378085,
        "lon": -51.49336536191563,
        "alt_km": 35777.06260747037,
        "timestamp": "2025-12-08T23:34:03.637349+00:00",
        "meta_object_name": "GALAXY 18 (G-18)",
        "meta_object_id": "2008-024A",
        "meta_epoch": "2025-12-08T12:08:44.778912",
        "meta_mean_motion": 1.00271881,
        "meta_eccentricity": 0.00031939,
        "meta_inclination": 0.0154,
        "meta_ra_of_asc_node": 290.3666,
        "meta_arg_of_pericenter": 329.6467,
        "meta_mean_anomaly": 236.6719,
        "meta_ephemeris_type": 0,
        "meta_classification_type": "U",
        "meta_norad_cat_id": 32951,
        "meta_element_set_no": 999,
        "meta_rev_at_epoch": 4394,
        "meta_bstar": 0,
        "meta_mean_motion_dot": 2.7e-07,
        "meta_mean_motion_ddot": 0,
        "tle_line1": "1 32951U 08024A   25342.50607383  .00000027  00000+0  00000+0 0  9999",
        "tle_line2": "2 32951   0.0154 290.3666 0003193 329.6467 236.6719  1.00271881 43949"
      },
      "geometry": {
        "type": "Point",
        "coordinates": [
          -51.49336536191563,
          -0.0020474276356378085
        ]
      }
    },
    {
      "type": "Feature",
      "properties": {
        "norad_id": 33153,
        "name": "INTELSAT 25 (IS-25)",
        "group": "intelsat",
        "lat": -1.4847775409329453,
        "lon": 40.06389983907786,
        "alt_km": 35802.63003477071,
        "timestamp": "2025-12-08T23:34:03.637361+00:00",
        "meta_object_name": "INTELSAT 25 (IS-25)",
        "meta_object_id": "2008-034A",
        "meta_epoch": "2025-12-08T11:44:32.941824",
        "meta_mean_motion": 1.00270434,
        "meta_eccentricity": 0.00054185,
        "meta_inclination": 2.2167,
        "meta_ra_of_asc_node": 82.6928,
        "meta_arg_of_pericenter": 183.3941,
        "meta_mean_anomaly": 316.0513,
        "meta_ephemeris_type": 0,
        "meta_classification_type": "U",
        "meta_norad_cat_id": 33153,
        "meta_element_set_no": 999,
        "meta_rev_at_epoch": 6378,
        "meta_bstar": 0,
        "meta_mean_motion_dot": -2.22e-06,
        "meta_mean_motion_ddot": 0,
        "tle_line1": "1 33153U 08034A   25342.48927016 -.00000222  00000+0  00000+0 0  9998",
        "tle_line2": "2 33153   2.2167  82.6928 0005418 183.3941 316.0513  1.00270434 63781"
      },
      "geometry": {
        "type": "Point",
        "coordinates": [
          40.06389983907786,
          -1.4847775409329453
        ]
      }
    }
  ]
}